      2.10          N: GNSS NAV DATA                        RINEX VERSION / TYPE
fic2rin                                 07/27/2023 00:17:52 PGM / RUN BY / DATE
                                                            END OF HEADER
6  23  7 26  1 59 44.0  .574177596718D-03 -.409272615798D-11  .000000000000D+00
     .300000000000D+01 -.479687500000D+02  .358622080906D-08  .213997686873D+01
    -.237300992012D-05  .268341205083D-02  .758096575737D-05  .515370983315D+04
     .266384000000D+06 -.670552253723D-07  .125906858606D+01  .428408384323D-07
     .989203305317D+00  .248625000000D+03 -.761981359514D+00 -.761638868173D-08
     .142863093678D-11  .100000000000D+01  .227200000000D+04  .000000000000D+00
     .240000000000D+01  .000000000000D+00  .372529029846D-08  .300000000000D+01
     .259200000000D+06  .400000000000D+01
2  23  7 26  2  0  0.0 -.572358258069D-03  .397903932026D-11  .000000000000D+00
     .890000000000D+02 -.484687500000D+02  .412052877942D-08 -.166411337680D+01
    -.211223959923D-05  .159293584293D-01  .788643956184D-05  .515355206680D+04
     .266400000000D+06 -.223517417908D-07  .116746453998D+01  .406056642532D-06
     .967425840118D+00  .230625000000D+03 -.136474848611D+01 -.801926260590D-08
    -.385730352932D-10  .100000000000D+01  .227200000000D+04  .000000000000D+00
     .240000000000D+01  .000000000000D+00 -.176951289177D-07  .890000000000D+02
     .259200000000D+06  .400000000000D+01
1  23  7 26  2  0  0.0  .171271618456D-03 -.170530256582D-11  .000000000000D+00
     .270000000000D+02 -.591875000000D+02  .354764777377D-08  .194204745681D+01
    -.316835939884D-05  .129312019562D-01  .819936394691D-05  .515364552879D+04
     .266400000000D+06 -.143423676491D-06  .126740388366D+01 -.234693288803D-06
     .990008711940D+00  .238000000000D+03  .988348276513D+00 -.773103631441D-08
    -.642883921553D-11  .100000000000D+01  .227200000000D+04  .000000000000D+00
     .240000000000D+01  .630000000000D+02  .465661287308D-08  .270000000000D+02
     .259200000000D+06  .400000000000D+01
5  23  7 26  2  0  0.0 -.136310700327D-03 -.147792889038D-11  .000000000000D+00
     .930000000000D+02 -.136250000000D+02  .428624996809D-08 -.177623683119D+01
    -.581145286560D-06  .605983799323D-02  .715255737305D-05  .515370568085D+04
     .266400000000D+06  .745058059692D-07  .225044328020D+01  .931322574615D-08
     .966868967185D+00  .236968750000D+03  .119107906017D+01 -.794997400547D-08
     .429660754238D-09  .100000000000D+01  .227200000000D+04  .000000000000D+00
     .240000000000D+01  .000000000000D+00 -.111758708954D-07  .930000000000D+02
     .259200000000D+06  .400000000000D+01
3  23  7 26  2  0  0.0 -.216717831790D-03  .164845914696D-10  .000000000000D+00
     .590000000000D+02 -.161875000000D+02  .407516974718D-08  .758548925065D+00
    -.105425715446D-05  .505369831808D-02  .802613794804D-05  .515362862778D+04
     .266400000000D+06 -.223517417908D-07  .229779606589D+01  .335276126862D-07
     .979872843066D+00  .233687500000D+03  .107381474195D+01 -.791568686299D-08
     .402159608705D-09  .100000000000D+01  .227200000000D+04  .000000000000D+00
     .240000000000D+01  .000000000000D+00  .186264514923D-08  .590000000000D+02
     .259200000000D+06  .400000000000D+01
8  23  7 26  2  0  0.0 -.134050380439D-03 -.193267624127D-11  .000000000000D+00
     .240000000000D+02  .671875000000D+01  .463055002385D-08 -.215983576075D+01
     .415369868279D-06  .850923976395D-02  .407919287682D-05  .515372663498D+04
     .266400000000D+06 -.484287738800D-07  .173804027567D+00 -.521540641785D-07
     .958093692585D+00  .300593750000D+03  .271504404380D+00 -.827141596625D-08
    -.107147320259D-09  .100000000000D+01  .227200000000D+04  .000000000000D+00
     .240000000000D+01  .000000000000D+00  .512227416039D-08  .240000000000D+02
     .259200000000D+06  .400000000000D+01
7  23  7 26  2  0  0.0  .114415772259D-03 -.110276232590D-10  .000000000000D+00
     .960000000000D+02 -.484375000000D+01  .497985028790D-08  .127670563029D+01
    -.987201929092D-07  .175071331905D-01  .104811042547D-04  .515373830223D+04
     .266400000000D+06 -.340864062309D-06 -.189043149670D+01  .987201929092D-07
     .950061706181D+00  .178906250000D+03 -.217942848361D+01 -.837070581635D-08
    -.326442169055D-09  .100000000000D+01  .227200000000D+04  .000000000000D+00
     .240000000000D+01  .000000000000D+00 -.111758708954D-07  .960000000000D+02
     .259200000000D+06  .400000000000D+01
4  23  7 26  2  0  0.0  .106448307633D-03  .110276232590D-10  .000000000000D+00
     .194000000000D+03 -.288437500000D+02  .482341520032D-08 -.256270162864D+01
    -.149384140968D-05  .245285278652D-02  .717304646969D-05  .515363602829D+04
     .266400000000D+06 -.223517417908D-07 -.290502170890D+01 -.260770320892D-07
     .963410222154D+00  .248031250000D+03 -.301010572438D+01 -.806962184643D-08
     .742888087128D-10  .100000000000D+01  .227200000000D+04  .000000000000D+00
     .240000000000D+01  .000000000000D+00 -.465661287308D-08  .706000000000D+03
     .259200000000D+06  .400000000000D+01
26 23  7 26 14  0  0.0  .235222745687D-03 -.125055521494D-11  .000000000000D+00
     .740000000000D+02  .833750000000D+02  .506378235543D-08 -.297110294008D+00
     .448524951935D-05  .800406280905D-02  .761821866035D-05  .515372958946D+04
     .309600000000D+06  .121071934700D-06 -.915375944854D+00  .614672899246D-07
     .933231879665D+00  .217531250000D+03  .461810477037D+00 -.849428239239D-08
     .123576576032D-09  .100000000000D+01  .227200000000D+04  .000000000000D+00
     .240000000000D+01  .000000000000D+00  .698491930962D-08  .740000000000D+02
     .302400000000D+06  .400000000000D+01
19 23  7 26 14  0  0.0  .349108129740D-03  .511590769747D-11  .000000000000D+00
     .860000000000D+02  .100625000000D+02  .457090468224D-08 -.333804126910D-01
     .486150383949D-06  .948710169178D-02  .406056642532D-05  .515363272285D+04
     .309600000000D+06  .204890966415D-07  .307844865031D+00 -.931322574615D-07
     .972772830567D+00  .307812500000D+03  .236605297663D+01 -.834606193269D-08
     .407159816984D-10  .100000000000D+01  .227200000000D+04  .000000000000D+00
     .240000000000D+01  .000000000000D+00 -.153668224812D-07  .860000000000D+02
     .302400000000D+06  .400000000000D+01
14 23  7 26 14  0  0.0  .134441070259D-03  .119371179608D-10  .000000000000D+00
     .239000000000D+03  .727187500000D+02  .477234164433D-08  .534751284275D+00
     .384636223316D-05  .341536640190D-02  .774674117565D-05  .515367992401D+04
     .309600000000D+06  .447034835815D-07 -.815172929213D+00  .577419996262D-07
     .948126288968D+00  .224562500000D+03 -.296393390564D+01 -.818926968738D-08
     .142863093678D-09  .100000000000D+01  .227200000000D+04  .000000000000D+00
     .240000000000D+01  .000000000000D+00 -.791624188423D-08  .239000000000D+03
     .302400000000D+06  .400000000000D+01
31 23  7 26 14  0  0.0 -.220749992877D-03 -.682121026330D-12  .000000000000D+00
     .187000000000D+03  .146250000000D+02  .446875757026D-08  .423844060475D+00
     .927597284317D-06  .103476108052D-01  .952556729317D-05  .515359818840D+04
     .309600000000D+06  .242143869400D-07 -.187052693091D+01  .230967998505D-06
     .954118830056D+00  .192125000000D+03  .556619649351D+00 -.803962059675D-08
    -.232509684962D-09  .100000000000D+01  .227200000000D+04  .000000000000D+00
     .240000000000D+01  .000000000000D+00 -.135041773319D-07  .187000000000D+03
     .302400000000D+06  .400000000000D+01
18 23  7 26 14  0  0.0 -.359798781574D-03 -.138697942020D-10  .000000000000D+00
     .580000000000D+02 -.501250000000D+02  .437053919336D-08  .213971325089D+01
    -.251084566116D-05  .350613275077D-02  .725872814655D-05  .515366919708D+04
     .309600000000D+06 -.931322574615D-08  .126718865769D+01  .176951289177D-06
     .973898427533D+00  .247968750000D+03  .313059402878D+01 -.805640701026D-08
    -.532165023952D-10  .100000000000D+01  .227200000000D+04  .000000000000D+00
     .240000000000D+01  .000000000000D+00 -.838190317154D-08  .570000000000D+03
     .302400000000D+06  .400000000000D+01
28 23  7 26 14  0  0.0  .807582400739D-04 -.216004991671D-11  .000000000000D+00
     .127000000000D+03  .775000000000D+01  .431589406003D-08 -.144601818629D+00
     .504776835442D-06  .624003587291D-03  .948831439018D-05  .515371709442D+04
     .309600000000D+06 -.372529029846D-07 -.192741956339D+01 -.111758708954D-07
     .961223106961D+00  .196875000000D+03  .163700117162D+01 -.784782689349D-08
    -.213937482783D-09  .100000000000D+01  .227200000000D+04  .000000000000D+00
     .240000000000D+01  .000000000000D+00 -.977888703346D-08  .383000000000D+03
     .302400000000D+06  .400000000000D+01
23 23  7 26 14  0  0.0  .475943088531D-04  .432009983342D-11  .000000000000D+00
     .111000000000D+03 -.211875000000D+02  .429910764652D-08  .110388109514D+01
    -.101886689663D-05  .341603963170D-02  .807084143162D-05  .515366968155D+04
     .309600000000D+06  .242143869400D-07  .226732932081D+01  .428408384323D-07
     .974727469060D+00  .229062500000D+03 -.310402317498D+01 -.795783147562D-08
     .122862260563D-09  .100000000000D+01  .227200000000D+04  .000000000000D+00
     .240000000000D+01  .000000000000D+00 -.838190317154D-08  .879000000000D+03
     .302400000000D+06  .400000000000D+01
22 23  7 26 14  0  0.0  .518261920661D-03  .534328137292D-11  .000000000000D+00
     .100000000000D+02 -.232812500000D+02  .448054377549D-08 -.229451319287D+01
    -.114552676678D-05  .143751115538D-01  .709295272827D-05  .515365240288D+04
     .309600000000D+06  .197440385818D-06 -.285686204928D+01 -.726431608200D-07
     .963219699018D+00  .244843750000D+03 -.179786467790D+01 -.772175021332D-08
    -.560737642688D-10  .100000000000D+01  .227200000000D+04  .000000000000D+00
     .240000000000D+01  .630000000000D+02 -.838190317154D-08  .100000000000D+02
     .302400000000D+06  .400000000000D+01
